<?xml version="1.0" encoding="UTF-8"?>
<ndm xmlns:xsi="http://www.w3.org/2001/XMLSchema-instance" xsi:noNamespaceSchemaLocation="https://sanaregistry.org/r/ndmxml_unqualified/ndmxml-2.0.0-master-2.0.xsd">
<omm id="CCSDS_OMM_VERS" version="2.0">
<header><CREATION_DATE/><ORIGINATOR/></header><body><segment><metadata><OBJECT_NAME>ORBCOMM FM05</OBJECT_NAME><OBJECT_ID>1997-084F</OBJECT_ID><CENTER_NAME>EARTH</CENTER_NAME><REF_FRAME>TEME</REF_FRAME><TIME_SYSTEM>UTC</TIME_SYSTEM><MEAN_ELEMENT_THEORY>SGP4</MEAN_ELEMENT_THEORY></metadata><data><meanElements><EPOCH>2024-12-06T15:38:48.369408</EPOCH><MEAN_MOTION>14.44633113</MEAN_MOTION><ECCENTRICITY>.0001725</ECCENTRICITY><INCLINATION>45.0129</INCLINATION><RA_OF_ASC_NODE>211.6435</RA_OF_ASC_NODE><ARG_OF_PERICENTER>348.4735</ARG_OF_PERICENTER><MEAN_ANOMALY>11.6076</MEAN_ANOMALY></meanElements><tleParameters><EPHEMERIS_TYPE>0</EPHEMERIS_TYPE><CLASSIFICATION_TYPE>U</CLASSIFICATION_TYPE><NORAD_CAT_ID>25117</NORAD_CAT_ID><ELEMENT_SET_NO>999</ELEMENT_SET_NO><REV_AT_EPOCH>41275</REV_AT_EPOCH><BSTAR>.95981E-3</BSTAR><MEAN_MOTION_DOT>.3212E-4</MEAN_MOTION_DOT><MEAN_MOTION_DDOT>0</MEAN_MOTION_DDOT></tleParameters></data></segment></body></omm>
<omm id="CCSDS_OMM_VERS" version="2.0">
<header><CREATION_DATE/><ORIGINATOR/></header><body><segment><metadata><OBJECT_NAME>ORBCOMM FM06</OBJECT_NAME><OBJECT_ID>1997-084G</OBJECT_ID><CENTER_NAME>EARTH</CENTER_NAME><REF_FRAME>TEME</REF_FRAME><TIME_SYSTEM>UTC</TIME_SYSTEM><MEAN_ELEMENT_THEORY>SGP4</MEAN_ELEMENT_THEORY></metadata><data><meanElements><EPOCH>2024-12-06T16:06:16.647264</EPOCH><MEAN_MOTION>14.44816030</MEAN_MOTION><ECCENTRICITY>.0000968</ECCENTRICITY><INCLINATION>45.0121</INCLINATION><RA_OF_ASC_NODE>211.5334</RA_OF_ASC_NODE><ARG_OF_PERICENTER>16.3638</ARG_OF_PERICENTER><MEAN_ANOMALY>17.5084</MEAN_ANOMALY></meanElements><tleParameters><EPHEMERIS_TYPE>0</EPHEMERIS_TYPE><CLASSIFICATION_TYPE>U</CLASSIFICATION_TYPE><NORAD_CAT_ID>25118</NORAD_CAT_ID><ELEMENT_SET_NO>999</ELEMENT_SET_NO><REV_AT_EPOCH>41367</REV_AT_EPOCH><BSTAR>.105E-2</BSTAR><MEAN_MOTION_DOT>.3542E-4</MEAN_MOTION_DOT><MEAN_MOTION_DDOT>0</MEAN_MOTION_DDOT></tleParameters></data></segment></body></omm>
<omm id="CCSDS_OMM_VERS" version="2.0">
<header><CREATION_DATE/><ORIGINATOR/></header><body><segment><metadata><OBJECT_NAME>ORBCOMM FM07</OBJECT_NAME><OBJECT_ID>1997-084H</OBJECT_ID><CENTER_NAME>EARTH</CENTER_NAME><REF_FRAME>TEME</REF_FRAME><TIME_SYSTEM>UTC</TIME_SYSTEM><MEAN_ELEMENT_THEORY>SGP4</MEAN_ELEMENT_THEORY></metadata><data><meanElements><EPOCH>2024-12-06T02:49:35.424768</EPOCH><MEAN_MOTION>14.44678542</MEAN_MOTION><ECCENTRICITY>.0002378</ECCENTRICITY><INCLINATION>45.0118</INCLINATION><RA_OF_ASC_NODE>214.8823</RA_OF_ASC_NODE><ARG_OF_PERICENTER>330.7101</ARG_OF_PERICENTER><MEAN_ANOMALY>29.3617</MEAN_ANOMALY></meanElements><tleParameters><EPHEMERIS_TYPE>0</EPHEMERIS_TYPE><CLASSIFICATION_TYPE>U</CLASSIFICATION_TYPE><NORAD_CAT_ID>25119</NORAD_CAT_ID><ELEMENT_SET_NO>999</ELEMENT_SET_NO><REV_AT_EPOCH>41358</REV_AT_EPOCH><BSTAR>.104E-2</BSTAR><MEAN_MOTION_DOT>.3497E-4</MEAN_MOTION_DOT><MEAN_MOTION_DDOT>0</MEAN_MOTION_DDOT></tleParameters></data></segment></body></omm>
<omm id="CCSDS_OMM_VERS" version="2.0">
<header><CREATION_DATE/><ORIGINATOR/></header><body><segment><metadata><OBJECT_NAME>ORBCOMM FM03</OBJECT_NAME><OBJECT_ID>1998-007B</OBJECT_ID><CENTER_NAME>EARTH</CENTER_NAME><REF_FRAME>TEME</REF_FRAME><TIME_SYSTEM>UTC</TIME_SYSTEM><MEAN_ELEMENT_THEORY>SGP4</MEAN_ELEMENT_THEORY></metadata><data><meanElements><EPOCH>2024-12-06T14:31:46.464960</EPOCH><MEAN_MOTION>14.33534443</MEAN_MOTION><ECCENTRICITY>.0048404</ECCENTRICITY><INCLINATION>107.9666</INCLINATION><RA_OF_ASC_NODE>100.2078</RA_OF_ASC_NODE><ARG_OF_PERICENTER>227.2943</ARG_OF_PERICENTER><MEAN_ANOMALY>132.4115</MEAN_ANOMALY></meanElements><tleParameters><EPHEMERIS_TYPE>0</EPHEMERIS_TYPE><CLASSIFICATION_TYPE>U</CLASSIFICATION_TYPE><NORAD_CAT_ID>25158</NORAD_CAT_ID><ELEMENT_SET_NO>999</ELEMENT_SET_NO><REV_AT_EPOCH>39643</REV_AT_EPOCH><BSTAR>.11514E-2</BSTAR><MEAN_MOTION_DOT>.3102E-4</MEAN_MOTION_DOT><MEAN_MOTION_DDOT>0</MEAN_MOTION_DDOT></tleParameters></data></segment></body></omm>
<omm id="CCSDS_OMM_VERS" version="2.0">
<header><CREATION_DATE/><ORIGINATOR/></header><body><segment><metadata><OBJECT_NAME>ORBCOMM FM04</OBJECT_NAME><OBJECT_ID>1998-007C</OBJECT_ID><CENTER_NAME>EARTH</CENTER_NAME><REF_FRAME>TEME</REF_FRAME><TIME_SYSTEM>UTC</TIME_SYSTEM><MEAN_ELEMENT_THEORY>SGP4</MEAN_ELEMENT_THEORY></metadata><data><meanElements><EPOCH>2024-12-06T06:36:48.034080</EPOCH><MEAN_MOTION>14.33804209</MEAN_MOTION><ECCENTRICITY>.0044007</ECCENTRICITY><INCLINATION>107.9654</INCLINATION><RA_OF_ASC_NODE>102.6171</RA_OF_ASC_NODE><ARG_OF_PERICENTER>225.7058</ARG_OF_PERICENTER><MEAN_ANOMALY>134.0468</MEAN_ANOMALY></meanElements><tleParameters><EPHEMERIS_TYPE>0</EPHEMERIS_TYPE><CLASSIFICATION_TYPE>U</CLASSIFICATION_TYPE><NORAD_CAT_ID>25159</NORAD_CAT_ID><ELEMENT_SET_NO>999</ELEMENT_SET_NO><REV_AT_EPOCH>39656</REV_AT_EPOCH><BSTAR>.13474E-2</BSTAR><MEAN_MOTION_DOT>.3665E-4</MEAN_MOTION_DOT><MEAN_MOTION_DDOT>0</MEAN_MOTION_DDOT></tleParameters></data></segment></body></omm>
<omm id="CCSDS_OMM_VERS" version="2.0">
<header><CREATION_DATE/><ORIGINATOR/></header><body><segment><metadata><OBJECT_NAME>ORBCOMM FM17</OBJECT_NAME><OBJECT_ID>1998-046A</OBJECT_ID><CENTER_NAME>EARTH</CENTER_NAME><REF_FRAME>TEME</REF_FRAME><TIME_SYSTEM>UTC</TIME_SYSTEM><MEAN_ELEMENT_THEORY>SGP4</MEAN_ELEMENT_THEORY></metadata><data><meanElements><EPOCH>2024-12-06T15:52:52.596768</EPOCH><MEAN_MOTION>14.34317429</MEAN_MOTION><ECCENTRICITY>.0002742</ECCENTRICITY><INCLINATION>44.9939</INCLINATION><RA_OF_ASC_NODE>85.7400</RA_OF_ASC_NODE><ARG_OF_PERICENTER>283.7499</ARG_OF_PERICENTER><MEAN_ANOMALY>76.3042</MEAN_ANOMALY></meanElements><tleParameters><EPHEMERIS_TYPE>0</EPHEMERIS_TYPE><CLASSIFICATION_TYPE>U</CLASSIFICATION_TYPE><NORAD_CAT_ID>25413</NORAD_CAT_ID><ELEMENT_SET_NO>999</ELEMENT_SET_NO><REV_AT_EPOCH>37552</REV_AT_EPOCH><BSTAR>.83824E-3</BSTAR><MEAN_MOTION_DOT>.2236E-4</MEAN_MOTION_DOT><MEAN_MOTION_DDOT>0</MEAN_MOTION_DDOT></tleParameters></data></segment></body></omm>
<omm id="CCSDS_OMM_VERS" version="2.0">
<header><CREATION_DATE/><ORIGINATOR/></header><body><segment><metadata><OBJECT_NAME>ORBCOMM FM18</OBJECT_NAME><OBJECT_ID>1998-046B</OBJECT_ID><CENTER_NAME>EARTH</CENTER_NAME><REF_FRAME>TEME</REF_FRAME><TIME_SYSTEM>UTC</TIME_SYSTEM><MEAN_ELEMENT_THEORY>SGP4</MEAN_ELEMENT_THEORY></metadata><data><meanElements><EPOCH>2024-12-06T15:26:27.390048</EPOCH><MEAN_MOTION>14.37480307</MEAN_MOTION><ECCENTRICITY>.0004139</ECCENTRICITY><INCLINATION>44.9938</INCLINATION><RA_OF_ASC_NODE>8.1713</RA_OF_ASC_NODE><ARG_OF_PERICENTER>357.9964</ARG_OF_PERICENTER><MEAN_ANOMALY>2.0867</MEAN_ANOMALY></meanElements><tleParameters><EPHEMERIS_TYPE>0</EPHEMERIS_TYPE><CLASSIFICATION_TYPE>U</CLASSIFICATION_TYPE><NORAD_CAT_ID>25414</NORAD_CAT_ID><ELEMENT_SET_NO>999</ELEMENT_SET_NO><REV_AT_EPOCH>37653</REV_AT_EPOCH><BSTAR>.11045E-2</BSTAR><MEAN_MOTION_DOT>.3196E-4</MEAN_MOTION_DOT><MEAN_MOTION_DDOT>0</MEAN_MOTION_DDOT></tleParameters></data></segment></body></omm>
<omm id="CCSDS_OMM_VERS" version="2.0">
<header><CREATION_DATE/><ORIGINATOR/></header><body><segment><metadata><OBJECT_NAME>ORBCOMM FM19</OBJECT_NAME><OBJECT_ID>1998-046C</OBJECT_ID><CENTER_NAME>EARTH</CENTER_NAME><REF_FRAME>TEME</REF_FRAME><TIME_SYSTEM>UTC</TIME_SYSTEM><MEAN_ELEMENT_THEORY>SGP4</MEAN_ELEMENT_THEORY></metadata><data><meanElements><EPOCH>2024-12-06T14:12:19.156032</EPOCH><MEAN_MOTION>14.37304835</MEAN_MOTION><ECCENTRICITY>.0003456</ECCENTRICITY><INCLINATION>44.9950</INCLINATION><RA_OF_ASC_NODE>10.1161</RA_OF_ASC_NODE><ARG_OF_PERICENTER>340.3916</ARG_OF_PERICENTER><MEAN_ANOMALY>160.5261</MEAN_ANOMALY></meanElements><tleParameters><EPHEMERIS_TYPE>0</EPHEMERIS_TYPE><CLASSIFICATION_TYPE>U</CLASSIFICATION_TYPE><NORAD_CAT_ID>25415</NORAD_CAT_ID><ELEMENT_SET_NO>999</ELEMENT_SET_NO><REV_AT_EPOCH>37648</REV_AT_EPOCH><BSTAR>.11444E-2</BSTAR><MEAN_MOTION_DOT>.3304E-4</MEAN_MOTION_DOT><MEAN_MOTION_DDOT>0</MEAN_MOTION_DDOT></tleParameters></data></segment></body></omm>

</ndm>
