ORBCOMM FM05            
1 25117U 97084F   24341.65194872  .00003212  00000+0  95981-3 0  9992
2 25117  45.0129 211.6435 0001725 348.4735  11.6076 14.44633113412750
ORBCOMM FM06            
1 25118U 97084G   24341.67102601  .00003542  00000+0  10500-2 0  9993
2 25118  45.0121 211.5334 0000968  16.3638  17.5084 14.44816030413678
ORBCOMM FM07            
1 25119U 97084H   24341.11777112  .00003497  00000+0  10400-2 0  9996
2 25119  45.0118 214.8823 0002378 330.7101  29.3617 14.44678542413586
ORBCOMM FM03            
1 25158U 98007B   24341.60539890  .00003102  00000+0  11514-2 0  9998
2 25158 107.9666 100.2078 0048404 227.2943 132.4115 14.33534443396431
ORBCOMM FM04            
1 25159U 98007C   24341.27555595  .00003665  00000+0  13474-2 0  9993
2 25159 107.9654 102.6171 0044007 225.7058 134.0468 14.33804209396567
ORBCOMM FM17            
1 25413U 98046A   24341.66171987  .00002236  00000+0  83824-3 0  9991
2 25413  44.9939  85.7400 0002742 283.7499  76.3042 14.34317429375528
ORBCOMM FM18            
1 25414U 98046B   24341.64337257  .00003196  00000+0  11045-2 0  9995
2 25414  44.9938   8.1713 0004139 357.9964   2.0867 14.37480307376539
ORBCOMM FM19            
1 25415U 98046C   24341.59188838  .00003304  00000+0  11444-2 0  9993
2 25415  44.9950  10.1161 0003456 340.3916 160.5261 14.37304835376481
